NORAD_CAT_ID,OBJECT_NAME,OBJECT_TYPE,EPOCH,MEAN_MOTION,ECCENTRICITY,INCLINATION,RA_OF_ASC_NODE,ARG_OF_PERICENTER,MEAN_ANOMALY,BSTAR,MEAN_MOTION_DOT,MEAN_MOTION_DDOT,TLE_LINE0,TLE_LINE1,TLE_LINE2,SEMIMAJOR_AXIS,PERIOD,APOGEE,PERIGEE,DECAYED
52375.0,STARLINK-3785,PAYLOAD,2024-07-18 11:34:19,15.0882979,0.000158,53.2188,359.0725,106.2033,253.9133,-0.0001124,-2.076e-05,0.0,0 STARLINK-3785,1 52375U 22045AW  24200.48216436 -.00002076  00000-0 -11240-3 0  9995,2 52375  53.2188 359.0725 0001580 106.2033 253.9133 15.08829790125464,6917.912,95.438,540.87,538.684,0.0
52375.0,STARLINK-3785,PAYLOAD,2024-07-18 17:55:51,15.08831818,0.0001479,53.218,357.8774,84.1648,275.9513,-3.0431e-06,-3.36e-06,0.0,0 STARLINK-3785,1 52375U 22045AW  24200.74712568 -.00000336  00000-0 -30431-5 0  9993,2 52375  53.2180 357.8774 0001479  84.1648 275.9513 15.08831818125504,6917.905,95.438,540.794,538.747,0.0
52375.0,STARLINK-3785,PAYLOAD,2024-07-19 14:35:52,15.08840854,0.000147,53.2179,354.0122,91.8132,268.3028,0.00028137,4.193e-05,0.0,0 STARLINK-3785,1 52375U 22045AW  24201.60824766  .00004193  00000-0  28137-3 0  9994,2 52375  53.2179 354.0122 0001470  91.8132 268.3028 15.08840854125633,6917.878,95.438,540.76,538.726,0.0
52375.0,STARLINK-3785,PAYLOAD,2024-07-19 17:46:38,15.08842243,0.0001288,53.2175,353.4153,80.4439,279.6698,0.00042172,6.431e-05,0.0,0 STARLINK-3785,1 52375U 22045AW  24201.74072826  .00006431  00000-0  42172-3 0  9993,2 52375  53.2175 353.4153 0001288  80.4439 279.6698 15.08842243125651,6917.874,95.437,540.63,538.848,0.0
52375.0,STARLINK-3785,PAYLOAD,2024-07-20 03:18:57,15.0886112,0.0001285,53.2175,351.6286,72.2294,287.8838,0.00079956,0.00012467,0.0,0 STARLINK-3785,1 52375U 22045AW  24202.13816189  .00012467  00000-0  79956-3 0  9991,2 52375  53.2175 351.6286 0001285  72.2294 287.8838 15.08861120125712,6917.816,95.436,540.57,538.792,0.0
52375.0,STARLINK-3785,PAYLOAD,2024-07-20 09:40:30,15.08837759,0.0001372,53.2177,350.4452,75.068,285.0464,2.8515e-05,1.66e-06,0.0,0 STARLINK-3785,1 52375U 22045AW  24202.40312526  .00000166  00000-0  28515-4 0  9996,2 52375  53.2177 350.4452 0001372  75.0680 285.0464 15.08837759125753,6917.887,95.438,540.701,538.803,0.0
52375.0,STARLINK-3785,PAYLOAD,2024-07-20 14:26:39,15.08844275,0.0001272,53.2174,349.553,71.0465,289.0665,0.00053417,8.225e-05,0.0,0 STARLINK-3785,1 52375U 22045AW  24202.60184529  .00008225  00000-0  53417-3 0  9990,2 52375  53.2174 349.5530 0001272  71.0465 289.0665 15.08844275125783,6917.867,95.437,540.612,538.852,0.0
52375.0,STARLINK-3785,PAYLOAD,2024-07-20 17:37:25,15.08846804,0.0001152,53.2163,348.957,66.9738,293.1376,0.0017709,0.00028013,0.0,0 STARLINK-3785,1 52375U 22045AW  24202.73432525  .00028013  00000-0  17709-2 0  9996,2 52375  53.2163 348.9570 0001152  66.9738 293.1376 15.08846804125809,6917.86,95.437,540.522,538.928,0.0
52375.0,STARLINK-3785,PAYLOAD,2024-07-21 09:31:17,15.08832614,0.0001385,53.2179,345.98,98.9468,261.168,0.00051347,7.892e-05,0.0,0 STARLINK-3785,1 52375U 22045AW  24203.39672605  .00007892  00000-0  51347-3 0  9993,2 52375  53.2179 345.9800 0001385  98.9468 261.1680 15.08832614125900,6917.903,95.438,540.726,538.81,0.0
52375.0,STARLINK-3785,PAYLOAD,2024-07-21 14:17:26,15.0884103,0.0001499,53.2177,345.0895,86.9543,273.1621,0.001416,0.0002232,0.0,0 STARLINK-3785,1 52375U 22045AW  24203.59544741  .00022320  00000-0  14160-2 0  9998,2 52375  53.2177 345.0895 0001499  86.9543 273.1621 15.08841030125933,6917.877,95.437,540.779,538.705,0.0
52375.0,STARLINK-3785,PAYLOAD,2024-07-21 15:52:49,15.08841301,0.0001213,53.2177,344.793,83.7349,276.3782,0.0018701,0.00029601,0.0,0 STARLINK-3785,1 52375U 22045AW  24203.66168752  .00029601  00000-0  18701-2 0  9994,2 52375  53.2177 344.7930 0001213  83.7349 276.3782 15.08841301125947,6917.876,95.437,540.581,538.902,0.0
52375.0,STARLINK-3785,PAYLOAD,2024-07-22 09:22:04,15.08846938,0.0001599,53.2166,341.5226,95.6039,264.5135,0.0017173,0.00027154,0.0,0 STARLINK-3785,1 52375U 22045AW  24204.39033438  .00027154  00000-0  17173-2 0  9990,2 52375  53.2166 341.5226 0001599  95.6039 264.5135 15.08846938126058,6917.859,95.437,540.83,538.618,0.0
52375.0,STARLINK-3785,PAYLOAD,2024-07-23 09:12:52,15.08851941,0.0002697,53.2167,337.0623,319.1282,40.9508,0.0015846,0.0002503,0.0,0 STARLINK-3785,1 52375U 22045AW  24205.38394318  .00025030  00000-0  15846-2 0  9993,2 52375  53.2167 337.0623 0002697 319.1282  40.9508 15.08851941126201,6917.844,95.437,541.575,537.843,0.0
52375.0,STARLINK-3785,PAYLOAD,2024-07-23 15:34:24,15.08857096,0.000101,53.2168,335.8719,311.6036,48.4869,0.0013284,0.00020927,0.0,0 STARLINK-3785,1 52375U 22045AW  24205.64889908  .00020927  00000-0  13284-2 0  9990,2 52375  53.2168 335.8719 0001010 311.6036  48.4869 15.08857096126240,6917.828,95.436,540.392,538.994,0.0
52375.0,STARLINK-3785,PAYLOAD,2024-07-24 09:03:38,15.08859676,0.00022,53.2175,332.6018,298.1645,61.9125,0.0006776,0.00010518,0.0,0 STARLINK-3785,1 52375U 22045AW  24206.37753379  .00010518  00000-0  67760-3 0  9997,2 52375  53.2175 332.6018 0002200 298.1645  61.9125 15.08859676126355,6917.82,95.436,541.207,538.163,0.0
52375.0,STARLINK-3785,PAYLOAD,2024-07-25 16:51:21,15.08849602,0.0001095,53.2175,326.6535,96.9052,263.2065,0.0006224,9.634e-05,0.0,0 STARLINK-3785,1 52375U 22045AW  24207.70233490  .00009634  00000-0  62240-3 0  9997,2 52375  53.2175 326.6535 0001095  96.9052 263.2065 15.08849602126559,6917.851,95.437,540.474,538.959,0.0
52375.0,STARLINK-3785,PAYLOAD,2024-07-26 00:48:17,15.08855603,0.0001329,53.2171,325.1666,77.442,282.6721,0.00064064,9.927e-05,0.0,0 STARLINK-3785,1 52375U 22045AW  24208.03353205  .00009927  00000-0  64064-3 0  9992,2 52375  53.2171 325.1666 0001329  77.4420 282.6721 15.08855603126605,6917.833,95.437,540.617,538.778,0.0
52375.0,STARLINK-3785,PAYLOAD,2024-07-26 18:17:31,15.08855052,0.0002277,53.2203,321.8996,87.0884,273.0368,0.00037026,5.612e-05,0.0,0 STARLINK-3785,1 52375U 22045AW  24208.76217060  .00005612  00000-0  37026-3 0  9995,2 52375  53.2203 321.8996 0002277  87.0884 273.0368 15.08855052126715,6917.834,95.437,541.275,538.124,0.0
52375.0,STARLINK-3785,PAYLOAD,2024-07-27 14:57:32,15.08832407,0.0001199,53.2174,318.0309,90.4024,269.7106,-0.00010856,-2.015e-05,0.0,0 STARLINK-3785,1 52375U 22045AW  24209.62329496 -.00002015  00000-0 -10856-3 0  9996,2 52375  53.2174 318.0309 0001199  90.4024 269.7106 15.08832407126849,6917.904,95.438,540.598,538.939,0.0
52375.0,STARLINK-3785,PAYLOAD,2024-07-28 00:29:51,15.08833915,0.000159,53.2151,316.2453,98.3378,261.7794,0.00013704,1.893e-05,0.0,0 STARLINK-3785,1 52375U 22045AW  24210.02073920  .00001893  00000-0  13704-3 0  9996,2 52375  53.2151 316.2453 0001590  98.3378 261.7794 15.08833915126905,6917.899,95.438,540.864,538.664,0.0
52375.0,STARLINK-3785,PAYLOAD,2024-07-28 14:48:20,15.08845088,0.0001457,53.2161,313.5675,106.8215,253.2937,0.00059109,9.133e-05,0.0,0 STARLINK-3785,1 52375U 22045AW  24210.61689967  .00009133  00000-0  59109-3 0  9999,2 52375  53.2161 313.5675 0001457 106.8215 253.2937 15.08845088126997,6917.865,95.437,540.738,538.722,0.0
52375.0,STARLINK-3785,PAYLOAD,2024-07-29 00:20:38,15.08862052,0.000146,53.2166,311.7826,107.0582,253.057,0.00081661,0.0001274,0.0,0 STARLINK-3785,1 52375U 22045AW  24211.01433337  .00012740  00000-0  81661-3 0  9998,2 52375  53.2166 311.7826 0001460 107.0582 253.0570 15.08862052127053,6917.813,95.436,540.688,538.668,0.0
52375.0,STARLINK-3785,PAYLOAD,2024-07-29 13:03:43,15.08864106,0.0002717,53.2141,309.4048,92.3072,267.8231,0.00063782,9.884e-05,0.0,0 STARLINK-3785,1 52375U 22045AW  24211.54425285  .00009884  00000-0  63782-3 0  9998,2 52375  53.2141 309.4048 0002717  92.3072 267.8231 15.08864106127130,6917.807,95.436,541.551,537.792,0.0
52375.0,STARLINK-3785,PAYLOAD,2024-07-29 17:49:52,15.08856787,0.0002283,53.2166,308.5114,97.3297,262.7954,0.00034115,5.148e-05,0.0,0 STARLINK-3785,1 52375U 22045AW  24211.74297183  .00005148  00000-0  34115-3 0  9991,2 52375  53.2166 308.5114 0002283  97.3297 262.7954 15.08856787127168,6917.829,95.436,541.273,538.115,0.0
52375.0,STARLINK-3785,PAYLOAD,2024-07-30 12:54:30,15.08840836,0.0001564,53.2167,304.9442,93.4978,266.6193,0.00031253,4.69e-05,0.0,0 STARLINK-3785,1 52375U 22045AW  24212.53785047  .00004690  00000-0  31253-3 0  9991,2 52375  53.2167 304.9442 0001564  93.4978 266.6193 15.08840836127286,6917.878,95.438,540.825,538.661,0.0
52375.0,STARLINK-3785,PAYLOAD,2024-07-30 16:05:16,15.08839381,0.0001729,53.2167,304.3502,96.8735,263.2454,0.00060573,9.365e-05,0.0,0 STARLINK-3785,1 52375U 22045AW  24212.67033187  .00009365  00000-0  60573-3 0  9998,2 52375  53.2167 304.3502 0001729  96.8735 263.2454 15.08839381127307,6917.882,95.438,540.943,538.551,0.0
52375.0,STARLINK-3785,PAYLOAD,2024-07-31 12:45:18,15.08834533,0.0001335,53.2168,300.484,93.2005,266.914,0.00029277,4.374e-05,0.0,0 STARLINK-3785,1 52375U 22045AW  24213.53145887  .00004374  00000-0  29277-3 0  9996,2 52375  53.2168 300.4840 0001335  93.2005 266.9140 15.08834533127434,6917.897,95.438,540.686,538.839,0.0
52375.0,STARLINK-3785,PAYLOAD,2024-07-31 15:56:04,15.08831285,0.0001257,53.2161,299.8892,91.0385,269.0751,0.00020497,2.975e-05,0.0,0 STARLINK-3785,1 52375U 22045AW  24213.66394040  .00002975  00000-0  20497-3 0  9997,2 52375  53.2161 299.8892 0001257  91.0385 269.0751 15.08831285127450,6917.907,95.438,540.642,538.902,0.0
52375.0,STARLINK-3785,PAYLOAD,2024-08-01 12:36:05,15.08843172,0.0001239,53.2164,296.0241,91.1762,268.9372,0.00036364,5.505e-05,0.0,0 STARLINK-3785,1 52375U 22045AW  24214.52506050  .00005505  00000-0  36364-3 0  9991,2 52375  53.2164 296.0241 0001239  91.1762 268.9372 15.08843172127589,6917.871,95.437,540.593,538.879,0.0
52375.0,STARLINK-3785,PAYLOAD,2024-08-02 12:26:52,15.08832356,0.0001403,53.2162,291.564,82.5344,277.5808,4.0063e-05,3.5e-06,0.0,0 STARLINK-3785,1 52375U 22045AW  24215.51866756  .00000350  00000-0  40063-4 0  9998,2 52375  53.2162 291.5640 0001403  82.5344 277.5808 15.08832356127732,6917.904,95.438,540.739,538.798,0.0
